*******************************************************************************
Ephemeris / WWW_USER Mon Mar 24 09:02:35 2025 Pasadena, USA      / Horizons    
*******************************************************************************
Target body name: (2017 UX51)                     {source: JPL#22}
Center body name: Earth (399)                     {source: DE441}
Center-site name: Mauna Kea
*******************************************************************************
Start time      : A.D. 2019-Jan-22 04:17:00.0000 UT      
Stop  time      : A.D. 2019-Jan-22 16:49:00.0000 UT      
Step-size       : 1 minutes
*******************************************************************************
Target pole/equ : undefined
Target radii    : undefined                                                    
Center geodetic : 204.5278, 19.8260847, 4.21024   {E-lon(deg),Lat(deg),Alt(km)}
Center cylindric: 204.5278, 6006.35451, 2151.0229 {E-lon(deg),Dxy(km),Dz(km)}
Center pole/equ : ITRF93                          {East-longitude positive}
Center radii    : 6378.137, 6378.137, 6356.752 km {Equator_a, b, pole_c}       
Target primary  : Sun
Vis. interferer : MOON (R_eq= 1737.400) km        {source: DE441}
Rel. light bend : Sun                             {source: DE441}
Rel. lght bnd GM: 1.3271E+11 km^3/s^2                                          
Small-body perts: Yes                             {source: SB441-N16}
Atmos refraction: NO (AIRLESS)
RA format       : HMS
Time format     : CAL 
Calendar mode   : Mixed Julian/Gregorian
RTS-only print  : NO       
EOP file        : eop.250321.p250617                                           
EOP coverage    : DATA-BASED 1962-JAN-20 TO 2025-MAR-21. PREDICTS-> 2025-JUN-16
Units conversion: 1 au= 149597870.700 km, c= 299792.458 km/s, 1 day= 86400.0 s 
Table cut-offs 1: Elevation (-90.0deg=NO ),Airmass (>38.000=NO), Daylight (YES)
Table cut-offs 2: Solar elongation (  0.0,180.0=NO ),Local Hour Angle( 0.0=NO )
Table cut-offs 3: RA/DEC angular rate (     0.0=NO )                           
*******************************************************************************
Initial IAU76/J2000 heliocentric ecliptic osculating elements (au, days, deg.):
  EPOCH=  2458433.5 ! 2018-Nov-11.00 (TDB)         Residual RMS= .12444        
   EC= .7474905367293002   QR= 7.612253692784782   TP= 2459819.8104231078      
   OM= 217.7952286585891   W=  255.0338939179157   IN= 90.52400691057457       
  Equivalent ICRF heliocentric cartesian coordinates (au, au/d):
   X= 8.209785034050050E+00  Y= 6.297741083246843E+00  Z= 1.446459094674425E+00
  VX=-3.080259200599625E-03 VY=-2.498125597102637E-05 VZ=-6.110805734701701E-03
Asteroid physical parameters (km, seconds, rotational period in hours):        
   GM= n.a.                RAD= n.a.               ROTPER= n.a.                
   H= 11.                  G= .150                 B-V= n.a.                   
                           ALBEDO= n.a.            STYP= n.a.                  
*******************************************************************************
 Date__(UT)__HR:MN     R.A._________(ICRF)_________DEC
******************************************************
$$SOE
 2019-Jan-22 12:29  m  02 12 04.923608 +03 47 01.16749
 2019-Jan-22 12:30  m  02 12 04.924272 +03 47 01.11898
 2019-Jan-22 12:31  m  02 12 04.924938 +03 47 01.07048
 2019-Jan-22 12:32  m  02 12 04.925604 +03 47 01.02197
 2019-Jan-22 12:33  m  02 12 04.926272 +03 47 00.97346
 2019-Jan-22 12:34  m  02 12 04.926940 +03 47 00.92496
 2019-Jan-22 12:35  m  02 12 04.927610 +03 47 00.87646
 2019-Jan-22 12:36  m  02 12 04.928281 +03 47 00.82796
 2019-Jan-22 12:37  m  02 12 04.928953 +03 47 00.77946
 2019-Jan-22 12:38  m  02 12 04.929625 +03 47 00.73096
 2019-Jan-22 12:39  m  02 12 04.930299 +03 47 00.68247
 2019-Jan-22 12:40  m  02 12 04.930974 +03 47 00.63397
 2019-Jan-22 12:41  m  02 12 04.931651 +03 47 00.58548
 2019-Jan-22 12:42  m  02 12 04.932328 +03 47 00.53699
 2019-Jan-22 12:43  m  02 12 04.933006 +03 47 00.48850
 2019-Jan-22 12:44  m  02 12 04.933685 +03 47 00.44002
 2019-Jan-22 12:45  m  02 12 04.934365 +03 47 00.39153
 2019-Jan-22 12:46  m  02 12 04.935047 +03 47 00.34305
 2019-Jan-22 12:47  m  02 12 04.935729 +03 47 00.29457
 2019-Jan-22 12:48  m  02 12 04.936413 +03 47 00.24609
 2019-Jan-22 12:49  m  02 12 04.937097 +03 47 00.19761
 2019-Jan-22 12:50  m  02 12 04.937782 +03 47 00.14913
 2019-Jan-22 12:51  m  02 12 04.938469 +03 47 00.10066
 2019-Jan-22 12:52  m  02 12 04.939157 +03 47 00.05218
 2019-Jan-22 12:53  m  02 12 04.939845 +03 47 00.00371
 2019-Jan-22 12:54  m  02 12 04.940535 +03 46 59.95524
 2019-Jan-22 12:55  m  02 12 04.941226 +03 46 59.90677
 2019-Jan-22 12:56  m  02 12 04.941917 +03 46 59.85831
 2019-Jan-22 12:57  m  02 12 04.942610 +03 46 59.80984
 2019-Jan-22 12:58  m  02 12 04.943304 +03 46 59.76138
 2019-Jan-22 12:59  m  02 12 04.943998 +03 46 59.71292
 2019-Jan-22 13:00  m  02 12 04.944694 +03 46 59.66446
 2019-Jan-22 13:01  m  02 12 04.945391 +03 46 59.61600
 2019-Jan-22 13:02  m  02 12 04.946089 +03 46 59.56755
 2019-Jan-22 13:03  m  02 12 04.946787 +03 46 59.51909
 2019-Jan-22 13:04  m  02 12 04.947487 +03 46 59.47064
 2019-Jan-22 13:05  m  02 12 04.948188 +03 46 59.42219
 2019-Jan-22 13:06  m  02 12 04.948890 +03 46 59.37374
 2019-Jan-22 13:07  m  02 12 04.949592 +03 46 59.32530
 2019-Jan-22 13:08  m  02 12 04.950296 +03 46 59.27685
 2019-Jan-22 13:09  m  02 12 04.951001 +03 46 59.22841
 2019-Jan-22 13:10  m  02 12 04.951707 +03 46 59.17997
 2019-Jan-22 13:11  m  02 12 04.952413 +03 46 59.13153
 2019-Jan-22 13:12  m  02 12 04.953121 +03 46 59.08309
 2019-Jan-22 13:13  m  02 12 04.953830 +03 46 59.03465
 2019-Jan-22 13:14  m  02 12 04.954539 +03 46 58.98622
 2019-Jan-22 13:15  m  02 12 04.955250 +03 46 58.93778
 2019-Jan-22 13:16  m  02 12 04.955961 +03 46 58.88935
 2019-Jan-22 13:17  m  02 12 04.956674 +03 46 58.84093
 2019-Jan-22 13:18  m  02 12 04.957387 +03 46 58.79250
 2019-Jan-22 13:19  m  02 12 04.958102 +03 46 58.74407
 2019-Jan-22 13:20  m  02 12 04.958817 +03 46 58.69565
 2019-Jan-22 13:21  m  02 12 04.959533 +03 46 58.64723
 2019-Jan-22 13:22  m  02 12 04.960251 +03 46 58.59881
 2019-Jan-22 13:23  m  02 12 04.960969 +03 46 58.55039
 2019-Jan-22 13:24  m  02 12 04.961688 +03 46 58.50197
 2019-Jan-22 13:25  m  02 12 04.962408 +03 46 58.45356
 2019-Jan-22 13:26  m  02 12 04.963129 +03 46 58.40515
 2019-Jan-22 13:27  m  02 12 04.963851 +03 46 58.35674
 2019-Jan-22 13:28  m  02 12 04.964574 +03 46 58.30833
 2019-Jan-22 13:29  m  02 12 04.965298 +03 46 58.25992
 2019-Jan-22 13:30  m  02 12 04.966022 +03 46 58.21152
 2019-Jan-22 13:31  m  02 12 04.966748 +03 46 58.16311
 2019-Jan-22 13:32  m  02 12 04.967474 +03 46 58.11471
 2019-Jan-22 13:33  m  02 12 04.968202 +03 46 58.06631
 2019-Jan-22 13:34  m  02 12 04.968930 +03 46 58.01792
 2019-Jan-22 13:35  m  02 12 04.969660 +03 46 57.96952
 2019-Jan-22 13:36  m  02 12 04.970390 +03 46 57.92113
 2019-Jan-22 13:37  m  02 12 04.971121 +03 46 57.87273
 2019-Jan-22 13:38  m  02 12 04.971853 +03 46 57.82434
 2019-Jan-22 13:39  m  02 12 04.972586 +03 46 57.77596
 2019-Jan-22 13:40  m  02 12 04.973319 +03 46 57.72757
 2019-Jan-22 13:41  m  02 12 04.974054 +03 46 57.67918
 2019-Jan-22 13:42  m  02 12 04.974789 +03 46 57.63080
 2019-Jan-22 13:43  m  02 12 04.975526 +03 46 57.58242
 2019-Jan-22 13:44  m  02 12 04.976263 +03 46 57.53404
 2019-Jan-22 13:45  m  02 12 04.977001 +03 46 57.48567
 2019-Jan-22 13:46  m  02 12 04.977740 +03 46 57.43729
 2019-Jan-22 13:47  m  02 12 04.978480 +03 46 57.38892
 2019-Jan-22 13:48  m  02 12 04.979221 +03 46 57.34055
 2019-Jan-22 13:49  m  02 12 04.979962 +03 46 57.29218
 2019-Jan-22 13:50  m  02 12 04.980705 +03 46 57.24381
 2019-Jan-22 13:51  m  02 12 04.981448 +03 46 57.19545
 2019-Jan-22 13:52  m  02 12 04.982192 +03 46 57.14708
 2019-Jan-22 13:53  m  02 12 04.982937 +03 46 57.09872
 2019-Jan-22 13:54  m  02 12 04.983683 +03 46 57.05036
 2019-Jan-22 13:55  m  02 12 04.984430 +03 46 57.00200
 2019-Jan-22 13:56  m  02 12 04.985177 +03 46 56.95365
 2019-Jan-22 13:57  m  02 12 04.985925 +03 46 56.90529
 2019-Jan-22 13:58  m  02 12 04.986675 +03 46 56.85694
 2019-Jan-22 13:59  m  02 12 04.987424 +03 46 56.80859
 2019-Jan-22 14:00  m  02 12 04.988175 +03 46 56.76024
 2019-Jan-22 14:01  m  02 12 04.988927 +03 46 56.71190
 2019-Jan-22 14:02  m  02 12 04.989679 +03 46 56.66355
 2019-Jan-22 14:03  m  02 12 04.990432 +03 46 56.61521
 2019-Jan-22 14:04  m  02 12 04.991186 +03 46 56.56687
 2019-Jan-22 14:05  m  02 12 04.991941 +03 46 56.51853
 2019-Jan-22 14:06  m  02 12 04.992697 +03 46 56.47020
 2019-Jan-22 14:07  m  02 12 04.993453 +03 46 56.42186
 2019-Jan-22 14:08  m  02 12 04.994210 +03 46 56.37353
 2019-Jan-22 14:09  m  02 12 04.994968 +03 46 56.32520
 2019-Jan-22 14:10  m  02 12 04.995727 +03 46 56.27687
 2019-Jan-22 14:11  m  02 12 04.996487 +03 46 56.22855
 2019-Jan-22 14:12  m  02 12 04.997247 +03 46 56.18022
 2019-Jan-22 14:13  m  02 12 04.998008 +03 46 56.13190
 2019-Jan-22 14:14  m  02 12 04.998770 +03 46 56.08358
 2019-Jan-22 14:15  m  02 12 04.999532 +03 46 56.03526
 2019-Jan-22 14:16  m  02 12 05.000296 +03 46 55.98694
 2019-Jan-22 14:17  m  02 12 05.001060 +03 46 55.93863
 2019-Jan-22 14:18  m  02 12 05.001825 +03 46 55.89032
 2019-Jan-22 14:19  m  02 12 05.002590 +03 46 55.84201
 2019-Jan-22 14:20  m  02 12 05.003357 +03 46 55.79370
 2019-Jan-22 14:21  m  02 12 05.004124 +03 46 55.74539
 2019-Jan-22 14:22  m  02 12 05.004892 +03 46 55.69709
 2019-Jan-22 14:23  m  02 12 05.005660 +03 46 55.64878
 2019-Jan-22 14:24  m  02 12 05.006429 +03 46 55.60048
 2019-Jan-22 14:25  m  02 12 05.007199 +03 46 55.55219
 2019-Jan-22 14:26  m  02 12 05.007970 +03 46 55.50389
 2019-Jan-22 14:27  m  02 12 05.008742 +03 46 55.45559
 2019-Jan-22 14:28  m  02 12 05.009514 +03 46 55.40730
 2019-Jan-22 14:29  m  02 12 05.010287 +03 46 55.35901
 2019-Jan-22 14:30  m  02 12 05.011060 +03 46 55.31072
 2019-Jan-22 14:31  m  02 12 05.011834 +03 46 55.26244
